[
    {
        "Altitude(m)": 560893.9410404448,
        "Argument of Periapsis(deg)": 0.0,
        "Eccentricity": 0.0,
        "Inclination(deg)": 53.0,
        "Latitude(deg)": -25.776461697710264,
        "Longitude(deg)": -71.18669667176236,
        "Mean Anomaly(deg)": -32.727300000000014,
        "RAAN(deg)": 50.0,
        "Satellite Name": "Starlink Shell 1 240",
        "Satellite Number": 240,
        "Semi-Major Axis(m)": 6931778.249405717,
        "Time(s)": 0
    },
    {
        "Altitude(m)": 560723.331021687,
        "Argument of Periapsis(deg)": 0.00034857847951123687,
        "Eccentricity": 0.0,
        "Inclination(deg)": 53.0,
        "Latitude(deg)": -25.307501372535903,
        "Longitude(deg)": -70.76660314024757,
        "Mean Anomaly(deg)": -32.10046879644336,
        "RAAN(deg)": 49.99948122992252,
        "Satellite Name": "Starlink Shell 1 240",
        "Satellite Number": 240,
        "Semi-Major Axis(m)": 6931778.249405717,
        "Time(s)": 10
    },
    {
        "Altitude(m)": 560553.5358273383,
        "Argument of Periapsis(deg)": 0.0006971569590224737,
        "Eccentricity": 0.0,
        "Inclination(deg)": 53.0,
        "Latitude(deg)": -24.837064408383416,
        "Longitude(deg)": -70.35003625823481,
        "Mean Anomaly(deg)": -31.473637592886544,
        "RAAN(deg)": 49.99896245984505,
        "Satellite Name": "Starlink Shell 1 240",
        "Satellite Number": 240,
        "Semi-Major Axis(m)": 6931778.249405717,
        "Time(s)": 20
    },
    {
        "Altitude(m)": 560384.6170620444,
        "Argument of Periapsis(deg)": 0.0010457354385337105,
        "Eccentricity": 0.0,
        "Inclination(deg)": 53.0,
        "Latitude(deg)": -24.36519175652668,
        "Longitude(deg)": -69.93690562547964,
        "Mean Anomaly(deg)": -30.846806389329885,
        "RAAN(deg)": 49.99844368976758,
        "Satellite Name": "Starlink Shell 1 240",
        "Satellite Number": 240,
        "Semi-Major Axis(m)": 6931778.249405717,
        "Time(s)": 30
    },
    {
        "Altitude(m)": 560216.6357914788,
        "Argument of Periapsis(deg)": 0.0013943139180449475,
        "Eccentricity": 0.0,
        "Inclination(deg)": 53.0,
        "Latitude(deg)": -23.891923540899242,
        "Longitude(deg)": -69.52712158147472,
        "Mean Anomaly(deg)": -30.219975185773077,
        "RAAN(deg)": 49.99792491969011,
        "Satellite Name": "Starlink Shell 1 240",
        "Satellite Number": 240,
        "Semi-Major Axis(m)": 6931778.249405717,
        "Time(s)": 40
    },
    {
        "Altitude(m)": 560049.6525149838,
        "Argument of Periapsis(deg)": 0.0017428923975561844,
        "Eccentricity": 0.0,
        "Inclination(deg)": 53.0,
        "Latitude(deg)": -23.417299083943334,
        "Longitude(deg)": -69.12059619847653,
        "Mean Anomaly(deg)": -29.593143982216418,
        "RAAN(deg)": 49.99740614961264,
        "Satellite Name": "Starlink Shell 1 240",
        "Satellite Number": 240,
        "Semi-Major Axis(m)": 6931778.249405717,
        "Time(s)": 50
    },
    {
        "Altitude(m)": 559883.7271384683,
        "Argument of Periapsis(deg)": 0.002091470877067421,
        "Eccentricity": 0.0,
        "Inclination(deg)": 53.0,
        "Latitude(deg)": -22.941356931936763,
        "Longitude(deg)": -68.71724276026045,
        "Mean Anomaly(deg)": -28.966312778659763,
        "RAAN(deg)": 49.99688737953517,
        "Satellite Name": "Starlink Shell 1 240",
        "Satellite Number": 240,
        "Semi-Major Axis(m)": 6931778.249405717,
        "Time(s)": 60
    },
    {
        "Altitude(m)": 559718.9189475796,
        "Argument of Periapsis(deg)": 0.0024400493565786582,
        "Eccentricity": 0.0,
        "Inclination(deg)": 53.0,
        "Latitude(deg)": -22.464134879803286,
        "Longitude(deg)": -68.3169752396159,
        "Mean Anomaly(deg)": -28.339481575103004,
        "RAAN(deg)": 49.99636860945769,
        "Satellite Name": "Starlink Shell 1 240",
        "Satellite Number": 240,
        "Semi-Major Axis(m)": 6931778.249405717,
        "Time(s)": 70
    },
    {
        "Altitude(m)": 559555.2865811707,
        "Argument of Periapsis(deg)": 0.002788627836089895,
        "Eccentricity": 0.0,
        "Inclination(deg)": 53.0,
        "Latitude(deg)": -21.98566999540725,
        "Longitude(deg)": -67.91970928757912,
        "Mean Anomaly(deg)": -27.71265037154629,
        "RAAN(deg)": 49.99584983938022,
        "Satellite Name": "Starlink Shell 1 240",
        "Satellite Number": 240,
        "Semi-Major Axis(m)": 6931778.249405717,
        "Time(s)": 80
    },
    {
        "Altitude(m)": 559392.8880050734,
        "Argument of Periapsis(deg)": 0.0031372063156011316,
        "Eccentricity": 0.0,
        "Inclination(deg)": 53.0,
        "Latitude(deg)": -21.505998643335396,
        "Longitude(deg)": -67.525361708771,
        "Mean Anomaly(deg)": -27.085819167989584,
        "RAAN(deg)": 49.99533106930274,
        "Satellite Name": "Starlink Shell 1 240",
        "Satellite Number": 240,
        "Semi-Major Axis(m)": 6931778.249405717,
        "Time(s)": 90
    },
    {
        "Altitude(m)": 559231.7804862072,
        "Argument of Periapsis(deg)": 0.0034857847951123688,
        "Eccentricity": 0.0,
        "Inclination(deg)": 53.0,
        "Latitude(deg)": -21.025156508172003,
        "Longitude(deg)": -67.1338499358207,
        "Mean Anomaly(deg)": -26.45898796443287,
        "RAAN(deg)": 49.994812299225266,
        "Satellite Name": "Starlink Shell 1 240",
        "Satellite Number": 240,
        "Semi-Major Axis(m)": 6931778.249405717,
        "Time(s)": 100
    },
    {
        "Altitude(m)": 559072.0205669713,
        "Argument of Periapsis(deg)": 0.003834363274623606,
        "Eccentricity": 0.0,
        "Inclination(deg)": 53.0,
        "Latitude(deg)": -20.54317861727369,
        "Longitude(deg)": -66.74509301584973,
        "Mean Anomaly(deg)": -25.83215676087616,
        "RAAN(deg)": 49.994293529147804,
        "Satellite Name": "Starlink Shell 1 240",
        "Satellite Number": 240,
        "Semi-Major Axis(m)": 6931778.249405717,
        "Time(s)": 110
    },
    {
        "Altitude(m)": 558913.6640400346,
        "Argument of Periapsis(deg)": 0.004182941754134842,
        "Eccentricity": 0.0,
        "Inclination(deg)": 53.0,
        "Latitude(deg)": -20.060099363049446,
        "Longitude(deg)": -66.35901108335713,
        "Mean Anomaly(deg)": -25.2053255573194,
        "RAAN(deg)": 49.99377475907033,
        "Satellite Name": "Starlink Shell 1 240",
        "Satellite Number": 240,
        "Semi-Major Axis(m)": 6931778.249405717,
        "Time(s)": 120
    },
    {
        "Altitude(m)": 558756.7659234452,
        "Argument of Periapsis(deg)": 0.004531520233646079,
        "Eccentricity": 0.0,
        "Inclination(deg)": 53.0,
        "Latitude(deg)": -19.575952524754566,
        "Longitude(deg)": -65.9755248324656,
        "Mean Anomaly(deg)": -24.57849435376274,
        "RAAN(deg)": 49.99325598899285,
        "Satellite Name": "Starlink Shell 1 240",
        "Satellite Number": 240,
        "Semi-Major Axis(m)": 6931778.249405717,
        "Time(s)": 130
    },
    {
        "Altitude(m)": 558601.3804361386,
        "Argument of Periapsis(deg)": 0.0048800987131573164,
        "Eccentricity": 0.0,
        "Inclination(deg)": 53.0,
        "Latitude(deg)": -19.090771289807027,
        "Longitude(deg)": -65.59455650147866,
        "Mean Anomaly(deg)": -23.95166315020598,
        "RAAN(deg)": 49.99273721891539,
        "Satellite Name": "Starlink Shell 1 240",
        "Satellite Number": 240,
        "Semi-Major Axis(m)": 6931778.249405717,
        "Time(s)": 140
    },
    {
        "Altitude(m)": 558447.5609738075,
        "Argument of Periapsis(deg)": 0.005228677192668553,
        "Eccentricity": 0.0,
        "Inclination(deg)": 53.0,
        "Latitude(deg)": -18.60458827463558,
        "Longitude(deg)": -65.21602934407305,
        "Mean Anomaly(deg)": -23.324831946649272,
        "RAAN(deg)": 49.99221844883791,
        "Satellite Name": "Starlink Shell 1 240",
        "Satellite Number": 240,
        "Semi-Major Axis(m)": 6931778.249405717,
        "Time(s)": 150
    },
    {
        "Altitude(m)": 558295.3600851774,
        "Argument of Periapsis(deg)": 0.00557725567217979,
        "Eccentricity": 0.0,
        "Inclination(deg)": 53.0,
        "Latitude(deg)": -18.117435545067888,
        "Longitude(deg)": -64.83986710006349,
        "Mean Anomaly(deg)": -22.698000743092617,
        "RAAN(deg)": 49.99169967876043,
        "Satellite Name": "Starlink Shell 1 240",
        "Satellite Number": 240,
        "Semi-Major Axis(m)": 6931778.249405717,
        "Time(s)": 160
    },
    {
        "Altitude(m)": 558144.8294486875,
        "Argument of Periapsis(deg)": 0.0059258341516910265,
        "Eccentricity": 0.0,
        "Inclination(deg)": 53.0,
        "Latitude(deg)": -17.629344636271316,
        "Longitude(deg)": -64.46599497867479,
        "Mean Anomaly(deg)": -22.071169539535802,
        "RAAN(deg)": 49.99118090868297,
        "Satellite Name": "Starlink Shell 1 240",
        "Satellite Number": 240,
        "Semi-Major Axis(m)": 6931778.249405717,
        "Time(s)": 170
    },
    {
        "Altitude(m)": 557996.0198495963,
        "Argument of Periapsis(deg)": 0.006274412631202263,
        "Eccentricity": 0.0,
        "Inclination(deg)": 53.0,
        "Latitude(deg)": -17.140346572255343,
        "Longitude(deg)": -64.09433912862745,
        "Mean Anomaly(deg)": -21.444338335979147,
        "RAAN(deg)": 49.990662138605494,
        "Satellite Name": "Starlink Shell 1 240",
        "Satellite Number": 240,
        "Semi-Major Axis(m)": 6931778.249405717,
        "Time(s)": 180
    }
]